XRISM                   
1 57800U 23137A   23313.13677148  .00006940  00000+0  55904-3 0  9999
2 57800  31.0050 336.6237 0010437 180.8305 179.2314 14.98546296  9472
